[
  {
    "name": "ONEWEB-0597",
    "noradId": "54663",
    "line1": "1 54663U 22166X   26187.13604974  .00000008  00000+0 -13066-4 0  9997",
    "line2": "2 54663  87.9239 240.2167 0001959  94.7383 265.3975 13.21827946174040"
  },
  {
    "name": "ONEWEB-0600",
    "noradId": "54664",
    "line1": "1 54664U 22166Y   26187.19326712  .00000011  00000+0 -39264-5 0  9998",
    "line2": "2 54664  87.9239 240.1968 0001885 100.2259 259.9088 13.21825228174025"
  },
  {
    "name": "ONEWEB-0601",
    "noradId": "54665",
    "line1": "1 54665U 22166Z   26187.18484152  .00000061  00000+0  11594-3 0  9999",
    "line2": "2 54665  87.9239 240.2144 0001851  91.7081 268.4265 13.21824912174215"
  },
  {
    "name": "ONEWEB-0602",
    "noradId": "54666",
    "line1": "1 54666U 22166AA  26187.15034585  .00000032  00000+0  46251-4 0  9995",
    "line2": "2 54666  87.9238 240.2269 0001833 101.0006 259.1334 13.21827873174050"
  },
  {
    "name": "ONEWEB-0603",
    "noradId": "54667",
    "line1": "1 54667U 22166AB  26187.15623995  .00000072  00000+0  14279-3 0  9993",
    "line2": "2 54667  87.9249 240.1847 0001962  96.2050 263.9307 13.21828103173982"
  },
  {
    "name": "ONEWEB-0604",
    "noradId": "54668",
    "line1": "1 54668U 22166AC  26187.14445050  .00000024  00000+0  26243-4 0  9999",
    "line2": "2 54668  87.9249 240.2028 0002101  98.9977 261.1395 13.21823808173948"
  },
  {
    "name": "ONEWEB-0605",
    "noradId": "54669",
    "line1": "1 54669U 22166AD  26187.13773500  .00000043  00000+0  71542-4 0  9996",
    "line2": "2 54669  87.9241 240.2160 0002154  79.8580 280.2796 13.21828339174014"
  },
  {
    "name": "ONEWEB-0606",
    "noradId": "54670",
    "line1": "1 54670U 22166AE  26187.15960430  .00000094  00000+0  19558-3 0  9994",
    "line2": "2 54670  87.9240 240.2238 0002119 100.7963 259.3410 13.21825498174070"
  },
  {
    "name": "ONEWEB-0607",
    "noradId": "54671",
    "line1": "1 54671U 22166AF  26187.20167670 -.00000061  00000+0 -17902-3 0  9993",
    "line2": "2 54671  87.9247 240.1881 0001898  95.5865 264.5486 13.21825657174052"
  },
  {
    "name": "ONEWEB-0608",
    "noradId": "54672",
    "line1": "1 54672U 22166AG  26187.13267133 -.00000036  00000+0 -11929-3 0  9996",
    "line2": "2 54672  87.9250 240.1989 0001901  82.6564 277.4786 13.21823562174053"
  },
  {
    "name": "ONEWEB-0610",
    "noradId": "54673",
    "line1": "1 54673U 22166AH  26187.18821902  .00000084  00000+0  17183-3 0  9991",
    "line2": "2 54673  87.9238 240.2001 0001584  84.3584 275.7730 13.21825805173965"
  },
  {
    "name": "ONEWEB-0611",
    "noradId": "54674",
    "line1": "1 54674U 22166AJ  26187.18146859  .00000084  00000+0  17260-3 0  9999",
    "line2": "2 54674  87.9237 240.1973 0002206  99.4912 260.6471 13.21826210173951"
  },
  {
    "name": "ONEWEB-0612",
    "noradId": "54675",
    "line1": "1 54675U 22166AK  26187.19494540  .00000021  00000+0  19011-4 0  9992",
    "line2": "2 54675  87.9250 240.1923 0001965  93.2228 266.9130 13.21826288173940"
  },
  {
    "name": "ONEWEB-0615",
    "noradId": "54676",
    "line1": "1 54676U 22166AL  26187.25043997  .00000045  00000+0  77902-4 0  9995",
    "line2": "2 54676  87.9242 240.1942 0002185 104.0698 256.0679 13.21827873173961"
  },
  {
    "name": "ONEWEB-0655",
    "noradId": "54677",
    "line1": "1 54677U 22166AM  26187.15119047 -.00000038  00000+0 -12270-3 0  9995",
    "line2": "2 54677  87.9240 240.2146 0001817  99.4743 260.6596 13.21827264173947"
  },
  {
    "name": "ONEWEB-0659",
    "noradId": "54678",
    "line1": "1 54678U 22166AN  26187.16801107 -.00000239  00000+0 -60921-3 0  9991",
    "line2": "2 54678  87.9236 240.2111 0002163  96.3501 263.7879 13.21826575174031"
  },
  {
    "name": "ONEWEB-0685",
    "noradId": "54679",
    "line1": "1 54679U 22166AP  26187.16780049  .00000076  00000+0  15347-3 0  9992",
    "line2": "2 54679  87.9236 240.2029 0001818  88.4665 271.6677 13.21848410173922"
  },
  {
    "name": "ONEWEB-0712",
    "noradId": "54680",
    "line1": "1 54680U 22166AQ  26187.13525122 -.00000073  00000+0 -22385-3 0  9999",
    "line2": "2 54680  87.9085 225.0117 0001674 103.8258 256.3059 13.16595414174556"
  },
  {
    "name": "ONEWEB-0714",
    "noradId": "54681",
    "line1": "1 54681U 22166AR  26187.17307880  .00000111  00000+0  23759-3 0  9990",
    "line2": "2 54681  87.9239 240.1999 0001929 104.1134 256.0215 13.21826124174040"
  },
  {
    "name": "ONEWEB-0532",
    "noradId": "55140",
    "line1": "1 55140U 23004A   26187.01654372  .00000119  00000+0  27205-3 0  9995",
    "line2": "2 55140  87.9134   2.1177 0002082  83.2647 276.8722 13.17648152170065"
  },
  {
    "name": "ONEWEB-0533",
    "noradId": "55141",
    "line1": "1 55141U 23004B   26186.98303805  .00000343  00000+0  91937-3 0  9995",
    "line2": "2 55141  87.8955 346.9322 0001656  90.2092 269.9226 13.12441291170528"
  },
  {
    "name": "ONEWEB-0541",
    "noradId": "55142",
    "line1": "1 55142U 23004C   26187.02759828 -.00000369  00000+0 -10783-2 0  9991",
    "line2": "2 55142  87.8891  17.3077 0002034  89.1791 270.9570 13.11417026168415"
  },
  {
    "name": "ONEWEB-0543",
    "noradId": "55143",
    "line1": "1 55143U 23004D   26186.90536724  .00000013  00000+0  18166-6 0  9997",
    "line2": "2 55143  87.9180 331.7451 0001732 102.4397 257.6929 13.18686231172162"
  },
  {
    "name": "ONEWEB-0544",
    "noradId": "55144",
    "line1": "1 55144U 23004E   26186.89862342  .00000086  00000+0  18419-3 0  9992",
    "line2": "2 55144  87.9179 331.7463 0001958 102.2125 257.9227 13.18686609172164"
  },
  {
    "name": "ONEWEB-0560",
    "noradId": "55145",
    "line1": "1 55145U 23004F   26186.96774201 -.00000183  00000+0 -49651-3 0  9999",
    "line2": "2 55145  87.9179 331.7219 0001921 105.3643 254.7701 13.18685272172182"
  },
  {
    "name": "ONEWEB-0565",
    "noradId": "55146",
    "line1": "1 55146U 23004G   26186.88514159  .00000072  00000+0  15015-3 0  9997",
    "line2": "2 55146  87.9169 331.7646 0002286  98.4170 261.7222 13.18686317172163"
  },
  {
    "name": "ONEWEB-0567",
    "noradId": "55147",
    "line1": "1 55147U 23004H   26186.87839329  .00000079  00000+0  16871-3 0  9994",
    "line2": "2 55147  87.9177 331.7513 0002199 101.6446 258.4934 13.18687246172167"
  },
  {
    "name": "ONEWEB-0569",
    "noradId": "55148",
    "line1": "1 55148U 23004J   26186.82398862  .00000209  00000+0  53686-3 0  9992",
    "line2": "2 55148  87.8983 316.5112 0002427 118.9430 241.1942 13.13470440172626"
  },
  {
    "name": "ONEWEB-0570",
    "noradId": "55149",
    "line1": "1 55149U 23004K   26186.94583592  .00000020  00000+0  18613-4 0  9995",
    "line2": "2 55149  87.9178 331.7359 0002165  88.5410 271.5970 13.18686259172164"
  },
  {
    "name": "ONEWEB-0571",
    "noradId": "55150",
    "line1": "1 55150U 23004L   26186.93909758  .00000037  00000+0  61699-4 0  9992",
    "line2": "2 55150  87.9179 331.7368 0002997 110.0427 250.1028 13.18685214172177"
  }
]