OBJECT_NAME,OBJECT_ID,EPOCH,MEAN_MOTION,ECCENTRICITY,INCLINATION,RA_OF_ASC_NODE,ARG_OF_PERICENTER,MEAN_ANOMALY,EPHEMERIS_TYPE,CLASSIFICATION_TYPE,NORAD_CAT_ID,ELEMENT_SET_NO,REV_AT_EPOCH,BSTAR,MEAN_MOTION_DOT,MEAN_MOTION_DDOT
ONEWEB-0597,2022-166X,2026-07-06T03:15:54.697536,13.21827946,.00019594,87.9239,240.2167,94.7383,265.3975,0,U,54663,999,17404,-.13066021E-4,.8E-7,0
ONEWEB-0600,2022-166Y,2026-07-06T04:38:18.279168,13.21825228,.00018852,87.9239,240.1968,100.2259,259.9088,0,U,54664,999,17402,-.3926434E-5,.11E-6,0
ONEWEB-0601,2022-166Z,2026-07-06T04:26:10.307328,13.21824912,.00018516,87.9239,240.2144,91.7081,268.4265,0,U,54665,999,17421,.11594053E-3,.61E-6,0
ONEWEB-0602,2022-166AA,2026-07-06T03:36:29.881440,13.21827873,.00018331,87.9238,240.2269,101.0006,259.1334,0,U,54666,999,17405,.4625077E-4,.32E-6,0
ONEWEB-0603,2022-166AB,2026-07-06T03:44:59.131680,13.21828103,.00019621,87.9249,240.1847,96.2050,263.9307,0,U,54667,999,17398,.14279207E-3,.72E-6,0
ONEWEB-0604,2022-166AC,2026-07-06T03:28:00.523200,13.21823808,.00021012,87.9249,240.2028,98.9977,261.1395,0,U,54668,999,17394,.26243458E-4,.24E-6,0
ONEWEB-0605,2022-166AD,2026-07-06T03:18:20.304000,13.21828339,.00021543,87.9241,240.2160,79.8580,280.2796,0,U,54669,999,17401,.71542052E-4,.43E-6,0
ONEWEB-0606,2022-166AE,2026-07-06T03:49:49.811520,13.21825498,.00021192,87.9240,240.2238,100.7963,259.3410,0,U,54670,999,17407,.19558042E-3,.94E-6,0
ONEWEB-0607,2022-166AF,2026-07-06T04:50:24.866880,13.21825657,.00018982,87.9247,240.1881,95.5865,264.5486,0,U,54671,999,17405,-.17901664E-3,-.61E-6,0
ONEWEB-0608,2022-166AG,2026-07-06T03:11:02.802912,13.21823562,.00019016,87.9250,240.1989,82.6564,277.4786,0,U,54672,999,17405,-.11928625E-3,-.36E-6,0
ONEWEB-0610,2022-166AH,2026-07-06T04:31:02.123328,13.21825805,.00015844,87.9238,240.2001,84.3584,275.7730,0,U,54673,999,17396,.17182754E-3,.84E-6,0
ONEWEB-0611,2022-166AJ,2026-07-06T04:21:18.886176,13.21826210,.00022069,87.9237,240.1973,99.4912,260.6471,0,U,54674,999,17395,.17260069E-3,.84E-6,0
ONEWEB-0612,2022-166AK,2026-07-06T04:40:43.282560,13.21826288,.00019651,87.9250,240.1923,93.2228,266.9130,0,U,54675,999,17394,.19011381E-4,.21E-6,0
ONEWEB-0615,2022-166AL,2026-07-06T06:00:38.013408,13.21827873,.00021858,87.9242,240.1942,104.0698,256.0679,0,U,54676,999,17396,.77902113E-4,.45E-6,0
ONEWEB-0655,2022-166AM,2026-07-06T03:37:42.856608,13.21827264,.00018174,87.9240,240.2146,99.4743,260.6596,0,U,54677,999,17394,-.12269819E-3,-.38E-6,0
ONEWEB-0659,2022-166AN,2026-07-06T04:01:56.156448,13.21826575,.00021632,87.9236,240.2111,96.3501,263.7879,0,U,54678,999,17403,-.60921303E-3,-.239E-5,0
ONEWEB-0685,2022-166AP,2026-07-06T04:01:37.962336,13.21848410,.00018187,87.9236,240.2029,88.4665,271.6677,0,U,54679,999,17392,.15346504E-3,.76E-6,0
ONEWEB-0712,2022-166AQ,2026-07-06T03:14:45.705408,13.16595414,.00016745,87.9085,225.0117,103.8258,256.3059,0,U,54680,999,17455,-.2238545E-3,-.73E-6,0
ONEWEB-0714,2022-166AR,2026-07-06T04:09:14.008320,13.21826124,.00019293,87.9239,240.1999,104.1134,256.0215,0,U,54681,999,17404,.23759043E-3,.111E-5,0
ONEWEB-0532,2023-004A,2026-07-06T00:23:49.377408,13.17648152,.00020826,87.9134,2.1177,83.2647,276.8722,0,U,55140,999,17006,.27205099E-3,.119E-5,0
ONEWEB-0533,2023-004B,2026-07-05T23:35:34.487520,13.12441291,.00016562,87.8955,346.9322,90.2092,269.9226,0,U,55141,999,17052,.91937273E-3,.343E-5,0
ONEWEB-0541,2023-004C,2026-07-06T00:39:44.491392,13.11417026,.00020342,87.8891,17.3077,89.1791,270.9570,0,U,55142,999,16841,-.10783259E-2,-.369E-5,0
ONEWEB-0543,2023-004D,2026-07-05T21:43:43.729536,13.18686231,.00017328,87.9180,331.7451,102.4397,257.6929,0,U,55143,999,17216,.181661E-6,.13E-6,0
ONEWEB-0544,2023-004E,2026-07-05T21:34:01.063488,13.18686609,.0001958,87.9179,331.7463,102.2125,257.9227,0,U,55144,999,17216,.18418888E-3,.86E-6,0
ONEWEB-0560,2023-004F,2026-07-05T23:13:32.909664,13.18685272,.00019218,87.9179,331.7219,105.3643,254.7701,0,U,55145,999,17218,-.49651139E-3,-.183E-5,0
ONEWEB-0565,2023-004G,2026-07-05T21:14:36.233376,13.18686317,.00022864,87.9169,331.7646,98.4170,261.7222,0,U,55146,999,17216,.15014802E-3,.72E-6,0
ONEWEB-0567,2023-004H,2026-07-05T21:04:53.180256,13.18687246,.00021995,87.9177,331.7513,101.6446,258.4934,0,U,55147,999,17216,.16870848E-3,.79E-6,0
ONEWEB-0569,2023-004J,2026-07-05T19:46:32.616768,13.13470440,.00024273,87.8983,316.5112,118.9430,241.1942,0,U,55148,999,17262,.53686131E-3,.209E-5,0
ONEWEB-0570,2023-004K,2026-07-05T22:42:00.223488,13.18686259,.0002165,87.9178,331.7359,88.5410,271.5970,0,U,55149,999,17216,.18613195E-4,.2E-6,0
ONEWEB-0571,2023-004L,2026-07-05T22:32:18.030912,13.18685214,.00029973,87.9179,331.7368,110.0427,250.1028,0,U,55150,999,17217,.61698734E-4,.37E-6,0
